{
  "type": "FeatureCollection",
  "features": [
    {
      "type": "Feature",
      "properties": {
        "norad_id": 33791,
        "name": "COSMOS 2251 DEB",
        "group": "cosmos-2251-debris",
        "lat": 48.65159908183324,
        "lon": 63.905524795949056,
        "alt_km": 764.9255512592163,
        "timestamp": "2025-12-08T15:42:50.188519+00:00",
        "meta_object_name": "COSMOS 2251 DEB",
        "meta_object_id": "1993-036AG",
        "meta_epoch": "2025-12-08T07:30:26.556768",
        "meta_mean_motion": 14.43088783,
        "meta_eccentricity": 0.00305891,
        "meta_inclination": 74.1754,
        "meta_ra_of_asc_node": 45.7335,
        "meta_arg_of_pericenter": 243.7434,
        "meta_mean_anomaly": 191.8465,
        "meta_ephemeris_type": 0,
        "meta_classification_type": "U",
        "meta_norad_cat_id": 33791,
        "meta_element_set_no": 999,
        "meta_rev_at_epoch": 87988,
        "meta_bstar": 0.0011172796,
        "meta_mean_motion_dot": 3.745e-05,
        "meta_mean_motion_ddot": 0,
        "tle_line1": "1 33791U 93036AG  25342.31280737  .00003745  00000+0  11173-2 0  9994",
        "tle_line2": "2 33791  74.1754  45.7335 0030589 243.7434 191.8465 14.43088783879882"
      },
      "geometry": {
        "type": "Point",
        "coordinates": [
          63.905524795949056,
          48.65159908183324
        ]
      }
    },
    {
      "type": "Feature",
      "properties": {
        "norad_id": 33792,
        "name": "COSMOS 2251 DEB",
        "group": "cosmos-2251-debris",
        "lat": 73.76563071497903,
        "lon": 89.21029480870268,
        "alt_km": 814.1340251597021,
        "timestamp": "2025-12-08T15:42:50.188530+00:00",
        "meta_object_name": "COSMOS 2251 DEB",
        "meta_object_id": "1993-036AH",
        "meta_epoch": "2025-12-08T04:58:47.582688",
        "meta_mean_motion": 13.45812249,
        "meta_eccentricity": 0.04269007,
        "meta_inclination": 73.9009,
        "meta_ra_of_asc_node": 352.582,
        "meta_arg_of_pericenter": 58.0786,
        "meta_mean_anomaly": 25.1373,
        "meta_ephemeris_type": 0,
        "meta_classification_type": "U",
        "meta_norad_cat_id": 33792,
        "meta_element_set_no": 999,
        "meta_rev_at_epoch": 82381,
        "meta_bstar": 0.00098709468,
        "meta_mean_motion_dot": 1.003e-05,
        "meta_mean_motion_ddot": 0,
        "tle_line1": "1 33792U 93036AH  25342.20749517  .00001003  00000+0  98709-3 0  9995",
        "tle_line2": "2 33792  73.9009 352.5820 0426900  58.0786  25.1373 13.45812249823816"
      },
      "geometry": {
        "type": "Point",
        "coordinates": [
          89.21029480870268,
          73.76563071497903
        ]
      }
    },
    {
      "type": "Feature",
      "properties": {
        "norad_id": 33793,
        "name": "COSMOS 2251 DEB",
        "group": "cosmos-2251-debris",
        "lat": 18.325575609505485,
        "lon": -28.118173115732464,
        "alt_km": 846.62693692831,
        "timestamp": "2025-12-08T15:42:50.188541+00:00",
        "meta_object_name": "COSMOS 2251 DEB",
        "meta_object_id": "1993-036AJ",
        "meta_epoch": "2025-12-07T21:00:44.933184",
        "meta_mean_motion": 14.27698729,
        "meta_eccentricity": 0.0078334,
        "meta_inclination": 73.9804,
        "meta_ra_of_asc_node": 158.7579,
        "meta_arg_of_pericenter": 309.8304,
        "meta_mean_anomaly": 168.0337,
        "meta_ephemeris_type": 0,
        "meta_classification_type": "U",
        "meta_norad_cat_id": 33793,
        "meta_element_set_no": 999,
        "meta_rev_at_epoch": 87137,
        "meta_bstar": 0.0010779297,
        "meta_mean_motion_dot": 2.721e-05,
        "meta_mean_motion_ddot": 0,
        "tle_line1": "1 33793U 93036AJ  25341.87552006  .00002721  00000+0  10779-2 0  9991",
        "tle_line2": "2 33793  73.9804 158.7579 0078334 309.8304 168.0337 14.27698729871371"
      },
      "geometry": {
        "type": "Point",
        "coordinates": [
          -28.118173115732464,
          18.325575609505485
        ]
      }
    },
    {
      "type": "Feature",
      "properties": {
        "norad_id": 33795,
        "name": "COSMOS 2251 DEB",
        "group": "cosmos-2251-debris",
        "lat": 43.61320126096738,
        "lon": 100.94193661540677,
        "alt_km": 559.2328381264151,
        "timestamp": "2025-12-08T15:42:50.188551+00:00",
        "meta_object_name": "COSMOS 2251 DEB",
        "meta_object_id": "1993-036AL",
        "meta_epoch": "2025-12-08T07:47:40.500384",
        "meta_mean_motion": 15.05255975,
        "meta_eccentricity": 0.00322029,
        "meta_inclination": 74.0332,
        "meta_ra_of_asc_node": 85.7881,
        "meta_arg_of_pericenter": 171.0354,
        "meta_mean_anomaly": 247.8515,
        "meta_ephemeris_type": 0,
        "meta_classification_type": "U",
        "meta_norad_cat_id": 33795,
        "meta_element_set_no": 999,
        "meta_rev_at_epoch": 89955,
        "meta_bstar": 0.0017662563,
        "meta_mean_motion_dot": 0.00025586,
        "meta_mean_motion_ddot": 0,
        "tle_line1": "1 33795U 93036AL  25342.32477431  .00025586  00000+0  17663-2 0  9995",
        "tle_line2": "2 33795  74.0332  85.7881 0032202 171.0354 247.8515 15.05255975899557"
      },
      "geometry": {
        "type": "Point",
        "coordinates": [
          100.94193661540677,
          43.61320126096738
        ]
      }
    },
    {
      "type": "Feature",
      "properties": {
        "norad_id": 33797,
        "name": "COSMOS 2251 DEB",
        "group": "cosmos-2251-debris",
        "lat": -24.281990661968486,
        "lon": -129.8628948212677,
        "alt_km": 692.8127554387174,
        "timestamp": "2025-12-08T15:42:50.188562+00:00",
        "meta_object_name": "COSMOS 2251 DEB",
        "meta_object_id": "1993-036AN",
        "meta_epoch": "2025-12-08T06:51:01.041408",
        "meta_mean_motion": 14.57821358,
        "meta_eccentricity": 0.0060907,
        "meta_inclination": 74.048,
        "meta_ra_of_asc_node": 43.4246,
        "meta_arg_of_pericenter": 132.6471,
        "meta_mean_anomaly": 294.4494,
        "meta_ephemeris_type": 0,
        "meta_classification_type": "U",
        "meta_norad_cat_id": 33797,
        "meta_element_set_no": 999,
        "meta_rev_at_epoch": 88920,
        "meta_bstar": 0.00070111725,
        "meta_mean_motion_dot": 3.263e-05,
        "meta_mean_motion_ddot": 0,
        "tle_line1": "1 33797U 93036AN  25342.28542872  .00003263  00000+0  70112-3 0  9991",
        "tle_line2": "2 33797  74.0480  43.4246 0060907 132.6471 294.4494 14.57821358889200"
      },
      "geometry": {
        "type": "Point",
        "coordinates": [
          -129.8628948212677,
          -24.281990661968486
        ]
      }
    },
    {
      "type": "Feature",
      "properties": {
        "norad_id": 33798,
        "name": "COSMOS 2251 DEB",
        "group": "cosmos-2251-debris",
        "lat": -72.005644234406,
        "lon": 81.65819730635472,
        "alt_km": 685.9391159632214,
        "timestamp": "2025-12-08T15:42:50.188573+00:00",
        "meta_object_name": "COSMOS 2251 DEB",
        "meta_object_id": "1993-036AP",
        "meta_epoch": "2025-12-08T05:17:28.961376",
        "meta_mean_motion": 14.44606193,
        "meta_eccentricity": 0.00925117,
        "meta_inclination": 74.0278,
        "meta_ra_of_asc_node": 144.3229,
        "meta_arg_of_pericenter": 266.6768,
        "meta_mean_anomaly": 273.9297,
        "meta_ephemeris_type": 0,
        "meta_classification_type": "U",
        "meta_norad_cat_id": 33798,
        "meta_element_set_no": 999,
        "meta_rev_at_epoch": 88528,
        "meta_bstar": 0.00030696163,
        "meta_mean_motion_dot": 1.09e-05,
        "meta_mean_motion_ddot": 0,
        "tle_line1": "1 33798U 93036AP  25342.22047409  .00001090  00000+0  30696-3 0  9991",
        "tle_line2": "2 33798  74.0278 144.3229 0092511 266.6768 273.9297 14.44606193885282"
      },
      "geometry": {
        "type": "Point",
        "coordinates": [
          81.65819730635472,
          -72.005644234406
        ]
      }
    },
    {
      "type": "Feature",
      "properties": {
        "norad_id": 33799,
        "name": "COSMOS 2251 DEB",
        "group": "cosmos-2251-debris",
        "lat": 8.170939845884227,
        "lon": 92.18673602307516,
        "alt_km": 647.4429792591618,
        "timestamp": "2025-12-08T15:42:50.188584+00:00",
        "meta_object_name": "COSMOS 2251 DEB",
        "meta_object_id": "1993-036AQ",
        "meta_epoch": "2025-12-08T06:02:18.231360",
        "meta_mean_motion": 14.79467402,
        "meta_eccentricity": 0.00238211,
        "meta_inclination": 74.0326,
        "meta_ra_of_asc_node": 90.6238,
        "meta_arg_of_pericenter": 162.9648,
        "meta_mean_anomaly": 219.4674,
        "meta_ephemeris_type": 0,
        "meta_classification_type": "U",
        "meta_norad_cat_id": 33799,
        "meta_element_set_no": 999,
        "meta_rev_at_epoch": 88745,
        "meta_bstar": 0.0015292632,
        "meta_mean_motion_dot": 0.00011465,
        "meta_mean_motion_ddot": 0,
        "tle_line1": "1 33799U 93036AQ  25342.25159990  .00011465  00000+0  15293-2 0  9996",
        "tle_line2": "2 33799  74.0326  90.6238 0023821 162.9648 219.4674 14.79467402887454"
      },
      "geometry": {
        "type": "Point",
        "coordinates": [
          92.18673602307516,
          8.170939845884227
        ]
      }
    }
  ]
}